[{"OBJECT_NAME":"STARLINK-2704","OBJECT_ID":"2021-044F","EPOCH":"2026-03-09T09:27:41.169600","MEAN_MOTION":15.30192842,"ECCENTRICITY":0.00013596,"INCLINATION":53.1594,"RA_OF_ASC_NODE":115.2316,"ARG_OF_PERICENTER":88.4412,"MEAN_ANOMALY":271.6745,"EPHEMERIS_TYPE":0,"CLASSIFICATION_TYPE":"U","NORAD_CAT_ID":48643,"ELEMENT_SET_NO":999,"REV_AT_EPOCH":26378,"BSTAR":-1.478891e-6,"MEAN_MOTION_DOT":-4.03e-6,"MEAN_MOTION_DDOT":0},{"OBJECT_NAME":"YAM-7","OBJECT_ID":"2024-149AN","EPOCH":"2026-03-09T17:13:55.117920","MEAN_MOTION":15.30304554,"ECCENTRICITY":0.00019733,"INCLINATION":97.3828,"RA_OF_ASC_NODE":149.4631,"ARG_OF_PERICENTER":296.5121,"MEAN_ANOMALY":63.5918,"EPHEMERIS_TYPE":0,"CLASSIFICATION_TYPE":"U","NORAD_CAT_ID":60504,"ELEMENT_SET_NO":999,"REV_AT_EPOCH":8683,"BSTAR":0.00030984439,"MEAN_MOTION_DOT":9.009e-5,"MEAN_MOTION_DDOT":0}]
