STARLINK-2704           
1 48643U 21044F   26068.39422650 -.00000403  00000+0 -14789-5 0  9991
2 48643  53.1594 115.2316 0001359  88.4412 271.6745 15.30192842263781
YAM-7                   
1 60504U 24149AN  26068.71799904  .00009009  00000+0  30984-3 0  9997
2 60504  97.3828 149.4631 0001973 296.5121  63.5918 15.30304554 86835
